ONEWEB-0427             
1 50499U 21132AG  25323.17395264  .00000061  00000+0  12288-3 0  9998
2 50499  87.9210  17.1443 0001570  97.8493 262.2818 13.18685043193932
ONEWEB-0429             
1 50500U 21132AH  25323.23662000 -.00000022  00000+0 -89333-4 0  9998
2 50500  87.9212  17.1634 0001968  98.5205 261.6150 13.18688775193914
ONEWEB-0430             
1 50501U 21132AJ  25323.22507754 -.00000072  00000+0 -21646-3 0  9999
2 50501  87.9214  17.1605 0001961  91.7612 268.3745 13.18684937193959
ONEWEB-0432             
1 50502U 21132AK  25323.10507539  .00000122  00000+0  27793-3 0  9991
2 50502  87.9205  17.1575 0001265  71.3958 288.7312 13.18674507193891
ONEWEB-0440             
1 50503U 21132AL  25323.16899875  .00000084  00000+0  18007-3 0  9990
2 50503  87.9214  17.1623 0002083 109.2625 250.8732 13.18688756193894
ONEWEB-0450             
1 50504U 21132AM  25323.16255455  .00000061  00000+0  12183-3 0  9995
2 50504  87.9210  17.1868 0002100  96.2587 263.8784 13.18686399193920
ONEWEB-0410             
1 51622U 22012A   25323.25375349  .00000033  00000+0  51704-4 0  9992
2 51622  87.9141  47.5871 0000612 154.2458 205.8705 13.17647831186056
ONEWEB-0411             
1 51623U 22012B   25323.25894766 -.00000119  00000+0 -37663-3 0  9996
2 51623  87.8801  78.1143 0001826  85.4736 274.6600 13.10371107181790
